HIERARCHY
ROOT Hips
{
  OFFSET 0.00 0.00 0.00
  CHANNELS 6 Xposition Yposition Zposition Zrotation Xrotation Yrotation
  JOINT Spine
  {
    OFFSET 0.00 12.00 0.00
    CHANNELS 3 Zrotation Xrotation Yrotation
    JOINT Head
    {
      OFFSET 0.00 15.00 0.00
      CHANNELS 3 Zrotation Xrotation Yrotation
      End Site
      {
        OFFSET 0.00 5.00 0.00
      }
    }
  }
  JOINT LeftUpLeg
  {
    OFFSET 5.00 -5.00 0.00
    CHANNELS 3 Zrotation Xrotation Yrotation
    JOINT LeftLeg
    {
      OFFSET 0.00 -25.00 0.00
      CHANNELS 3 Zrotation Xrotation Yrotation
      End Site
      {
        OFFSET 0.00 -25.00 0.00
      }
    }
  }
  JOINT RightUpLeg
  {
    OFFSET -5.00 -5.00 0.00
    CHANNELS 3 Zrotation Xrotation Yrotation
    JOINT RightLeg
    {
      OFFSET 0.00 -25.00 0.00
      CHANNELS 3 Zrotation Xrotation Yrotation
      End Site
      {
        OFFSET 0.00 -25.00 0.00
      }
    }
  }
}
MOTION
Frames: 3
Frame Time: 0.033333
0.0 95.0 0.0 0.0 0.0 0.0 0.0 2.0 0.0 0.0 1.0 0.0 5.0 0.0 0.0 0.0 0.0 0.0 -5.0 0.0 0.0 0.0 0.0 0.0
0.0 95.2 0.5 0.0 0.5 0.0 0.0 2.1 0.0 0.0 1.2 0.0 7.0 0.0 0.0 2.0 0.0 0.0 -3.0 0.0 0.0 -2.0 0.0 0.0
0.0 95.5 1.0 0.0 1.0 0.0 0.0 2.2 0.0 0.0 1.5 0.0 9.0 0.0 0.0 4.0 0.0 0.0 -1.0 0.0 0.0 -4.0 0.0 0.0
